{
    "links": {
        "self": "http://www.neowsapp.com/rest/v1/neo/3684351?api_key=iIulBulltgU6a56xZRHN4H3l9WmuAYTsLGpBGhQ2"
    },
    "id": "3684351",
    "neo_reference_id": "3684351",
    "name": "(2014 QS362)",
    "designation": "2014 QS362",
    "nasa_jpl_url": "http://ssd.jpl.nasa.gov/sbdb.cgi?sstr=3684351",
    "absolute_magnitude_h": 24.5,
    "estimated_diameter": {
        "kilometers": {
            "estimated_diameter_min": 0.0334622374,
            "estimated_diameter_max": 0.0748238376
        },
        "meters": {
            "estimated_diameter_min": 33.4622374455,
            "estimated_diameter_max": 74.8238376074
        },
        "miles": {
            "estimated_diameter_min": 0.0207924639,
            "estimated_diameter_max": 0.0464933628
        },
        "feet": {
            "estimated_diameter_min": 109.7842471007,
            "estimated_diameter_max": 245.4850393757
        }
    },
    "is_potentially_hazardous_asteroid": false,
    "close_approach_data": [
        {
            "close_approach_date": "2014-08-19",
            "close_approach_date_full": "2014-Aug-19 01:51",
            "epoch_date_close_approach": 1408413060000,
            "relative_velocity": {
                "kilometers_per_second": "12.6500435101",
                "kilometers_per_hour": "45540.1566364327",
                "miles_per_hour": "28296.8823277879"
            },
            "miss_distance": {
                "astronomical": "0.0238161434",
                "lunar": "9.2644797826",
                "kilometers": "3562844.324254558",
                "miles": "2213848.8055585804"
            },
            "orbiting_body": "Earth"
        }
    ],
    "orbital_data": {
        "orbit_id": "4",
        "orbit_determination_date": "2017-04-06 08:39:04",
        "first_observation_date": "2014-08-26",
        "last_observation_date": "2014-09-01",
        "data_arc_in_days": 6,
        "observations_used": 22,
        "orbit_uncertainty": "8",
        "minimum_orbit_intersection": ".00371049",
        "jupiter_tisserand_invariant": "3.693",
        "epoch_osculation": "2456897.5",
        "eccentricity": ".537657182163674",
        "semi_major_axis": "1.950667650811425",
        "inclination": "6.499209479448691",
        "ascending_node_longitude": "141.3998205588391",
        "orbital_period": "995.1151763158455",
        "perihelion_distance": ".9018771783383207",
        "perihelion_argument": "135.3765084983401",
        "aphelion_distance": "2.999458123284529",
        "perihelion_time": "2456852.111636845018",
        "mean_anomaly": "16.42001963660871",
        "mean_motion": ".3617671688344722",
        "equinox": "J2000",
        "orbit_class": {
            "orbit_class_type": "APO",
            "orbit_class_description": "Near-Earth asteroid orbits which cross the Earth’s orbit similar to that of 1862 Apollo",
            "orbit_class_range": "a (semi-major axis) > 1.0 AU; q (perihelion) < 1.017 AU"
        }
    },
    "is_sentry_object": false
}